{"type": "FeatureCollection", "features": [ {"type": "Feature", "properties": {"norad_id": 43262, "name": "GAOFEN-1 04", "group": "resource", "lat": -66.93835921203988, "lon": -161.85146969592904, "alt_km": 648.7578723695196, "timestamp": "2025-12-05T19:30:25.224855+00:00", "meta": {"OBJECT_NAME": "GAOFEN-1 04", "OBJECT_ID": "2018-031D", "EPOCH": "2025-12-05T07:00:00.495360", "MEAN_MOTION": 14.76426055, "ECCENTRICITY": 0.00012814, "INCLINATION": 98.082, "RA_OF_ASC_NODE": 37.1242, "ARG_OF_PERICENTER": 62.1967, "MEAN_ANOMALY": 297.9372, "EPHEMERIS_TYPE": 0, "CLASSIFICATION_TYPE": "U", "NORAD_CAT_ID": 43262, "ELEMENT_SET_NO": 999, "REV_AT_EPOCH": 41407, "BSTAR": 0.00032039468, "MEAN_MOTION_DOT": 2.176e-05, "MEAN_MOTION_DDOT": 0}, "tle": {"line1": "1 43262U 18031D   25339.29167240  .00002176  00000+0  32039-3 0  9998", "line2": "2 43262  98.0820  37.1242 0001281  62.1967 297.9372 14.76426055414073"}}, "geometry": {"type": "Point", "coordinates": [-161.85146969592904, -66.93835921203988]}}, {"type": "Feature", "properties": {"norad_id": 43437, "name": "SENTINEL-3B", "group": "resource", "lat": -31.971507904236805, "lon": -140.340956859616, "alt_km": 808.9385005902495, "timestamp": "2025-12-05T19:30:25.224865+00:00", "meta": {"OBJECT_NAME": "SENTINEL-3B", "OBJECT_ID": "2018-039A", "EPOCH": "2025-12-05T05:03:01.183104", "MEAN_MOTION": 14.26738419, "ECCENTRICITY": 0.00014811, "INCLINATION": 98.6276, "RA_OF_ASC_NODE": 44.5032, "ARG_OF_PERICENTER": 110.1055, "MEAN_ANOMALY": 250.0285, "EPHEMERIS_TYPE": 0, "CLASSIFICATION_TYPE": "U", "NORAD_CAT_ID": 43437, "ELEMENT_SET_NO": 999, "REV_AT_EPOCH": 39646, "BSTAR": 0.00014710059, "MEAN_MOTION_DOT": 3.12e-06, "MEAN_MOTION_DDOT": 0}, "tle": {"line1": "1 43437U 18039A   25339.21043036  .00000312  00000+0  14710-3 0  9994", "line2": "2 43437  98.6276  44.5032 0001481 110.1055 250.0285 14.26738419396461"}}, "geometry": {"type": "Point", "coordinates": [-140.340956859616, -31.971507904236805]}}, {"type": "Feature", "properties": {"norad_id": 43461, "name": "GAOFEN-5 01", "group": "resource", "lat": 79.12179577914289, "lon": -107.85767397876113, "alt_km": 684.3368612129825, "timestamp": "2025-12-05T19:30:25.224875+00:00", "meta": {"OBJECT_NAME": "GAOFEN-5 01", "OBJECT_ID": "2018-043A", "EPOCH": "2025-12-04T20:06:25.044768", "MEAN_MOTION": 14.60396165, "ECCENTRICITY": 0.00014765, "INCLINATION": 98.4313, "RA_OF_ASC_NODE": 301.6676, "ARG_OF_PERICENTER": 6.2983, "MEAN_ANOMALY": 353.8235, "EPHEMERIS_TYPE": 0, "CLASSIFICATION_TYPE": "U", "NORAD_CAT_ID": 43461, "ELEMENT_SET_NO": 999, "REV_AT_EPOCH": 40332, "BSTAR": 0.00021161206, "MEAN_MOTION_DOT": 9.75e-06, "MEAN_MOTION_DDOT": 0}, "tle": {"line1": "1 43461U 18043A   25338.83778987  .00000975  00000+0  21161-3 0  9996", "line2": "2 43461  98.4313 301.6676 0001476   6.2983 353.8235 14.60396165403325"}}, "geometry": {"type": "Point", "coordinates": [-107.85767397876113, 79.12179577914289]}}, {"type": "Feature", "properties": {"norad_id": 43484, "name": "GAOFEN-6", "group": "resource", "lat": 36.0994070325591, "lon": 38.57256958104312, "alt_km": 631.4653748869223, "timestamp": "2025-12-05T19:30:25.224886+00:00", "meta": {"OBJECT_NAME": "GAOFEN-6", "OBJECT_ID": "2018-048A", "EPOCH": "2025-12-05T07:57:27.420768", "MEAN_MOTION": 14.76544515, "ECCENTRICITY": 0.00132959, "INCLINATION": 97.8041, "RA_OF_ASC_NODE": 43.8471, "ARG_OF_PERICENTER": 85.6589, "MEAN_ANOMALY": 274.614, "EPHEMERIS_TYPE": 0, "CLASSIFICATION_TYPE": "U", "NORAD_CAT_ID": 43484, "ELEMENT_SET_NO": 999, "REV_AT_EPOCH": 40478, "BSTAR": 0.00010990088, "MEAN_MOTION_DOT": 7.18e-06, "MEAN_MOTION_DDOT": 0}, "tle": {"line1": "1 43484U 18048A   25339.33156737  .00000718  00000+0  10990-3 0  9998", "line2": "2 43484  97.8041  43.8471 0013295  85.6589 274.6140 14.76544515404781"}}, "geometry": {"type": "Point", "coordinates": [38.57256958104312, 36.0994070325591]}}, {"type": "Feature", "properties": {"norad_id": 43585, "name": "GAOFEN-11 01", "group": "resource", "lat": -17.93739835402872, "lon": -139.52445643855947, "alt_km": 427.6904344308168, "timestamp": "2025-12-05T19:30:25.224897+00:00", "meta": {"OBJECT_NAME": "GAOFEN-11 01", "OBJECT_ID": "2018-063A", "EPOCH": "2025-12-05T07:48:04.912704", "MEAN_MOTION": 15.48912165, "ECCENTRICITY": 0.00048007, "INCLINATION": 97.1572, "RA_OF_ASC_NODE": 42.3233, "ARG_OF_PERICENTER": 346.0504, "MEAN_ANOMALY": 14.0614, "EPHEMERIS_TYPE": 0, "CLASSIFICATION_TYPE": "U", "NORAD_CAT_ID": 43585, "ELEMENT_SET_NO": 999, "REV_AT_EPOCH": 41027, "BSTAR": 0.00042988747, "MEAN_MOTION_DOT": 0.00023144, "MEAN_MOTION_DDOT": 0}, "tle": {"line1": "1 43585U 18063A   25339.32505686  .00023144  00000+0  42989-3 0  9998", "line2": "2 43585  97.1572  42.3233 0004800 346.0504  14.0614 15.48912165410271"}}, "geometry": {"type": "Point", "coordinates": [-139.52445643855947, -17.93739835402872]}}, {"type": "Feature", "properties": {"norad_id": 43613, "name": "ICESAT-2", "group": "resource", "lat": 85.19121897655069, "lon": 83.48418359797336, "alt_km": 473.59436394387285, "timestamp": "2025-12-05T19:30:25.224907+00:00", "meta": {"OBJECT_NAME": "ICESAT-2", "OBJECT_ID": "2018-070A", "EPOCH": "2025-12-05T03:22:44.661216", "MEAN_MOTION": 15.2811074, "ECCENTRICITY": 0.00013922, "INCLINATION": 92.0056, "RA_OF_ASC_NODE": 238.6857, "ARG_OF_PERICENTER": 165.9382, "MEAN_ANOMALY": 194.1906, "EPHEMERIS_TYPE": 0, "CLASSIFICATION_TYPE": "U", "NORAD_CAT_ID": 43613, "ELEMENT_SET_NO": 999, "REV_AT_EPOCH": 40282, "BSTAR": 0.00080334681, "MEAN_MOTION_DOT": 0.0002204, "MEAN_MOTION_DDOT": 0}, "tle": {"line1": "1 43613U 18070A   25339.14079469  .00022040  00000+0  80335-3 0  9994", "line2": "2 43613  92.0056 238.6857 0001392 165.9382 194.1906 15.28110740402824"}}, "geometry": {"type": "Point", "coordinates": [83.48418359797336, 85.19121897655069]}}, {"type": "Feature", "properties": {"norad_id": 43719, "name": "HYSIS", "group": "resource", "lat": 19.907564896898087, "lon": 39.900953865084574, "alt_km": 633.0136139300994, "timestamp": "2025-12-05T19:30:25.224917+00:00", "meta": {"OBJECT_NAME": "HYSIS", "OBJECT_ID": "2018-096A", "EPOCH": "2025-12-05T06:25:23.885184", "MEAN_MOTION": 14.78610932, "ECCENTRICITY": 0.00015669, "INCLINATION": 98.0108, "RA_OF_ASC_NODE": 42.2818, "ARG_OF_PERICENTER": 64.9989, "MEAN_ANOMALY": 295.1384, "EPHEMERIS_TYPE": 0, "CLASSIFICATION_TYPE": "U", "NORAD_CAT_ID": 43719, "ELEMENT_SET_NO": 999, "REV_AT_EPOCH": 37876, "BSTAR": 3.4575066e-05, "MEAN_MOTION_DOT": 2.01e-06, "MEAN_MOTION_DDOT": 0}, "tle": {"line1": "1 43719U 18096A   25339.26763756  .00000201  00000+0  34575-4 0  9992", "line2": "2 43719  98.0108  42.2818 0001566  64.9989 295.1384 14.78610932378764"}}, "geometry": {"type": "Point", "coordinates": [39.900953865084574, 19.907564896898087]}}, {"type": "Feature", "properties": {"norad_id": 43783, "name": "KAZSTSAT", "group": "resource", "lat": 76.5305079126205, "lon": -131.56216506551587, "alt_km": 562.8528952099769, "timestamp": "2025-12-05T19:30:25.224927+00:00", "meta": {"OBJECT_NAME": "KAZSTSAT", "OBJECT_ID": "2018-099AB", "EPOCH": "2025-12-05T01:26:18.320064", "MEAN_MOTION": 14.99313546, "ECCENTRICITY": 0.00063557, "INCLINATION": 97.4552, "RA_OF_ASC_NODE": 14.5754, "ARG_OF_PERICENTER": 359.8166, "MEAN_ANOMALY": 0.3054, "EPHEMERIS_TYPE": 0, "CLASSIFICATION_TYPE": "U", "NORAD_CAT_ID": 43783, "ELEMENT_SET_NO": 999, "REV_AT_EPOCH": 38221, "BSTAR": 0.00031383319, "MEAN_MOTION_DOT": 3.779e-05, "MEAN_MOTION_DDOT": 0}, "tle": {"line1": "1 43783U 18099AB  25339.05993426  .00003779  00000+0  31383-3 0  9998", "line2": "2 43783  97.4552  14.5754 0006355 359.8166   0.3054 14.99313546382215"}}, "geometry": {"type": "Point", "coordinates": [-131.56216506551587, 76.5305079126205]}}, {"type": "Feature", "properties": {"norad_id": 43831, "name": "SAUDISAT 5A", "group": "resource", "lat": -40.004572491621296, "lon": -146.06906267096124, "alt_km": 500.2107099134955, "timestamp": "2025-12-05T19:30:25.224937+00:00", "meta": {"OBJECT_NAME": "SAUDISAT 5A", "OBJECT_ID": "2018-102A", "EPOCH": "2025-12-05T07:31:32.047968", "MEAN_MOTION": 15.25517371, "ECCENTRICITY": 0.0011822, "INCLINATION": 97.3367, "RA_OF_ASC_NODE": 39.6489, "ARG_OF_PERICENTER": 98.9801, "MEAN_ANOMALY": 261.2776, "EPHEMERIS_TYPE": 0, "CLASSIFICATION_TYPE": "U", "NORAD_CAT_ID": 43831, "ELEMENT_SET_NO": 999, "REV_AT_EPOCH": 38609, "BSTAR": 0.00046054917, "MEAN_MOTION_DOT": 0.0001163, "MEAN_MOTION_DDOT": 0}, "tle": {"line1": "1 43831U 18102A   25339.31356537  .00011630  00000+0  46055-3 0  9999", "line2": "2 43831  97.3367  39.6489 0011822  98.9801 261.2776 15.25517371386098"}}, "geometry": {"type": "Point", "coordinates": [-146.06906267096124, -40.004572491621296]}}, {"type": "Feature", "properties": {"norad_id": 43833, "name": "SAUDISAT 5B", "group": "resource", "lat": -80.30608759534675, "lon": 173.81828076082476, "alt_km": 503.76657623530264, "timestamp": "2025-12-05T19:30:25.224948+00:00", "meta": {"OBJECT_NAME": "SAUDISAT 5B", "OBJECT_ID": "2018-102C", "EPOCH": "2025-12-05T07:20:18.844224", "MEAN_MOTION": 15.25873602, "ECCENTRICITY": 0.00125351, "INCLINATION": 97.3462, "RA_OF_ASC_NODE": 42.3665, "ARG_OF_PERICENTER": 101.5595, "MEAN_ANOMALY": 258.7052, "EPHEMERIS_TYPE": 0, "CLASSIFICATION_TYPE": "U", "NORAD_CAT_ID": 43833, "ELEMENT_SET_NO": 999, "REV_AT_EPOCH": 38620, "BSTAR": 0.00042005901, "MEAN_MOTION_DOT": 0.00010717, "MEAN_MOTION_DDOT": 0}, "tle": {"line1": "1 43833U 18102C   25339.30577366  .00010717  00000+0  42006-3 0  9992", "line2": "2 43833  97.3462  42.3665 0012535 101.5595 258.7052 15.25873602386209"}}, "geometry": {"type": "Point", "coordinates": [173.81828076082476, -80.30608759534675]}}]}